{
  "features": [
    {
      "id": "4020_1",
      "name": "Linz",
      "zipCode": 4020,
      "latitude": 0.0,
      "longitude": 0.0
    },
    {
      "id": "4020_2",
      "name": "Zaubertal",
      "zipCode": 4020,
      "latitude": 0.0,
      "longitude": 0.0
    },
    {
      "id": "4030_0",
      "name": "Linz",
      "zipCode": 4030,
      "latitude": 0.0,
      "longitude": 0.0
    },
    {
      "id": "4040_0",
      "name": "Altlichtenberg",
      "zipCode": 4040,
      "latitude": 0.0,
      "longitude": 0.0
    },
    {
      "id": "4040_1",
      "name": "Neulichtenberg",
      "zipCode": 4040,
      "latitude": 0.0,
      "longitude": 0.0
    },
    {
      "id": "4040_2",
      "name": "Linz",
      "zipCode": 4040,
      "latitude": 0.0,
      "longitude": 0.0
    },
    {
      "id": "4040_3",
      "name": "Asberg",
      "zipCode": 4040,
      "latitude": 0.0,
      "longitude": 0.0
    },
    {
      "id": "4040_4",
      "name": "Katzgraben",
      "zipCode": 4040,
      "latitude": 0.0,
      "longitude": 0.0
    },
    {
      "id": "4040_5",
      "name": "Plesching",
      "zipCode": 4040,
      "latitude": 0.0,
      "longitude": 0.0
    },
    {
      "id": "4040_6",
      "name": "Türkstetten",
      "zipCode": 4040,
      "latitude": 0.0,
      "longitude": 0.0
    },
    {
      "id": "4040_7",
      "name": "Hochbuchedt",
      "zipCode": 4040,
      "latitude": 0.0,
      "longitude": 0.0
    },
    {
      "id": "4040_8",
      "name": "Kammerschlag",
      "zipCode": 4040,
      "latitude": 0.0,
      "longitude": 0.0
    },
    {
      "id": "4040_9",
      "name": "Kitzelsbach",
      "zipCode": 4040,
      "latitude": 0.0,
      "longitude": 0.0
    },
    {
      "id": "4040_10",
      "name": "Großamberg",
      "zipCode": 4040,
      "latitude": 0.0,
      "longitude": 0.0
    },
    {
      "id": "4040_11",
      "name": "Mühlberg",
      "zipCode": 4040,
      "latitude": 0.0,
      "longitude": 0.0
    },
    {
      "id": "4040_12",
      "name": "Neulichtenberg",
      "zipCode": 4040,
      "latitude": 0.0,
      "longitude": 0.0
    },
    {
      "id": "4040_13",
      "name": "Haselgraben",
      "zipCode": 4040,
      "latitude": 0.0,
      "longitude": 0.0
    },
    {
      "id": "4040_14",
      "name": "Gramastetten",
      "zipCode": 4040,
      "latitude": 0.0,
      "longitude": 0.0
    },
    {
      "id": "4040_15",
      "name": "Oberbairing",
      "zipCode": 4040,
      "latitude": 0.0,
      "longitude": 0.0
    },
    {
      "id": "4040_16",
      "name": "Pöstlingberg",
      "zipCode": 4040,
      "latitude": 0.0,
      "longitude": 0.0
    },
    {
      "id": "4048_0",
      "name": "Oberpuchenau",
      "zipCode": 4048,
      "latitude": 0.0,
      "longitude": 0.0
    },
    {
      "id": "4048_1",
      "name": "Großamberg",
      "zipCode": 4048,
      "latitude": 0.0,
      "longitude": 0.0
    },
    {
      "id": "4048_2",
      "name": "Pöstlingberg",
      "zipCode": 4048,
      "latitude": 0.0,
      "longitude": 0.0
    },
    {
      "id": "4048_3",
      "name": "Puchenau",
      "zipCode": 4048,
      "latitude": 0.0,
      "longitude": 0.0
    },
    {
      "id": "4048_4",
      "name": "Unterpuchenau",
      "zipCode": 4048,
      "latitude": 0.0,
      "longitude": 0.0
    },
    {
      "id": "4050_0",
      "name": "Traun",
      "zipCode": 4050,
      "latitude": 0.0,
      "longitude": 0.0
    },
    {
      "id": "4050_1",
      "name": "Neubau",
      "zipCode": 4050,
      "latitude": 0.0,
      "longitude": 0.0
    },
    {
      "id": "4050_2",
      "name": "Sankt Martin",
      "zipCode": 4050,
      "latitude": 0.0,
      "longitude": 0.0
    },
    {
      "id": "4050_3",
      "name": "Oedt",
      "zipCode": 4050,
      "latitude": 0.0,
      "longitude": 0.0
    },
    {
      "id": "4050_4",
      "name": "Sankt Dionysen",
      "zipCode": 4050,
      "latitude": 0.0,
      "longitude": 0.0
    },
    {
      "id": "4052_0",
      "name": "Kremsdorf",
      "zipCode": 4052,
      "latitude": 0.0,
      "longitude": 0.0
    },
    {
      "id": "4052_1",
      "name": "Audorf",
      "zipCode": 4052,
      "latitude": 0.0,
      "longitude": 0.0
    },
    {
      "id": "4052_2",
      "name": "Grabwinkel",
      "zipCode": 4052,
      "latitude": 0.0,
      "longitude": 0.0
    },
    {
      "id": "4052_3",
      "name": "Fürhappen",
      "zipCode": 4052,
      "latitude": 0.0,
      "longitude": 0.0
    },
    {
      "id": "4052_4",
      "name": "Linz",
      "zipCode": 4052,
      "latitude": 0.0,
      "longitude": 0.0
    },
    {
      "id": "4052_5",
      "name": "Ansfelden",
      "zipCode": 4052,
      "latitude": 0.0,
      "longitude": 0.0
    },
    {
      "id": "4052_6",
      "name": "Freindorf",
      "zipCode": 4052,
      "latitude": 0.0,
      "longitude": 0.0
    },
    {
      "id": "4052_7",
      "name": "Fleckendorf",
      "zipCode": 4052,
      "latitude": 0.0,
      "longitude": 0.0
    },
    {
      "id": "4052_8",
      "name": "Vordermayrberg",
      "zipCode": 4052,
      "latitude": 0.0,
      "longitude": 0.0
    },
    {
      "id": "4053_0",
      "name": "Haid",
      "zipCode": 4053,
      "latitude": 0.0,
      "longitude": 0.0
    },
    {
      "id": "4053_1",
      "name": "Kremsdorf",
      "zipCode": 4053,
      "latitude": 0.0,
      "longitude": 0.0
    },
    {
      "id": "4053_2",
      "name": "Moos",
      "zipCode": 4053,
      "latitude": 0.0,
      "longitude": 0.0
    },
    {
      "id": "4053_3",
      "name": "Nettingsdorf",
      "zipCode": 4053,
      "latitude": 0.0,
      "longitude": 0.0
    },
    {
      "id": "4053_4",
      "name": "Weißenberg",
      "zipCode": 4053,
      "latitude": 0.0,
      "longitude": 0.0
    },
    {
      "id": "4053_5",
      "name": "Rapperswinkel",
      "zipCode": 4053,
      "latitude": 0.0,
      "longitude": 0.0
    },
    {
      "id": "4053_6",
      "name": "Neuhofen an der Krems",
      "zipCode": 4053,
      "latitude": 0.0,
      "longitude": 0.0
    },
    {
      "id": "4053_7",
      "name": "Berg",
      "zipCode": 4053,
      "latitude": 0.0,
      "longitude": 0.0
    },
    {
      "id": "4055_0",
      "name": "Sankt Leonhard",
      "zipCode": 4055,
      "latitude": 0.0,
      "longitude": 0.0
    },
    {
      "id": "4055_1",
      "name": "Köttsdorf",
      "zipCode": 4055,
      "latitude": 0.0,
      "longitude": 0.0
    },
    {
      "id": "4055_2",
      "name": "Oberschnadt",
      "zipCode": 4055,
      "latitude": 0.0,
      "longitude": 0.0
    },
    {
      "id": "4055_3",
      "name": "Zeitlham",
      "zipCode": 4055,
      "latitude": 0.0,
      "longitude": 0.0
    },
    {
      "id": "4055_4",
      "name": "Unterschnadt",
      "zipCode": 4055,
      "latitude": 0.0,
      "longitude": 0.0
    },
    {
      "id": "4055_5",
      "name": "Dörfl",
      "zipCode": 4055,
      "latitude": 0.0,
      "longitude": 0.0
    },
    {
      "id": "4055_6",
      "name": "Pucking",
      "zipCode": 4055,
      "latitude": 0.0,
      "longitude": 0.0
    },
    {
      "id": "4055_7",
      "name": "Hasenufer",
      "zipCode": 4055,
      "latitude": 0.0,
      "longitude": 0.0
    },
    {
      "id": "4055_8",
      "name": "Sammersdorf",
      "zipCode": 4055,
      "latitude": 0.0,
      "longitude": 0.0
    },
    {
      "id": "4055_9",
      "name": "Sipbach",
      "zipCode": 4055,
      "latitude": 0.0,
      "longitude": 0.0
    },
    {
      "id": "4060_0",
      "name": "Leonding",
      "zipCode": 4060,
      "latitude": 0.0,
      "longitude": 0.0
    },
    {
      "id": "4060_1",
      "name": "Untergaumberg",
      "zipCode": 4060,
      "latitude": 0.0,
      "longitude": 0.0
    },
    {
      "id": "4060_2",
      "name": "Bergham",
      "zipCode": 4060,
      "latitude": 0.0,
      "longitude": 0.0
    },
    {
      "id": "4060_3",
      "name": "Enzenwinkl",
      "zipCode": 4060,
      "latitude": 0.0,
      "longitude": 0.0
    },
    {
      "id": "4060_4",
      "name": "Imberg",
      "zipCode": 4060,
      "latitude": 0.0,
      "longitude": 0.0
    },
    {
      "id": "4060_5",
      "name": "Sankt Isidor",
      "zipCode": 4060,
      "latitude": 0.0,
      "longitude": 0.0
    },
    {
      "id": "4060_6",
      "name": "Aichberg",
      "zipCode": 4060,
      "latitude": 0.0,
      "longitude": 0.0
    },
    {
      "id": "4060_7",
      "name": "Berg",
      "zipCode": 4060,
      "latitude": 0.0,
      "longitude": 0.0
    },
    {
      "id": "4060_8",
      "name": "Buchberg",
      "zipCode": 4060,
      "latitude": 0.0,
      "longitude": 0.0
    },
    {
      "id": "4060_9",
      "name": "Friesenegg",
      "zipCode": 4060,
      "latitude": 0.0,
      "longitude": 0.0
    },
    {
      "id": "4060_10",
      "name": "Gaumberg",
      "zipCode": 4060,
      "latitude": 0.0,
      "longitude": 0.0
    },
    {
      "id": "4060_11",
      "name": "Alharting",
      "zipCode": 4060,
      "latitude": 0.0,
      "longitude": 0.0
    },
    {
      "id": "4060_12",
      "name": "Haag",
      "zipCode": 4060,
      "latitude": 0.0,
      "longitude": 0.0
    },
    {
      "id": "4060_13",
      "name": "Staudach",
      "zipCode": 4060,
      "latitude": 0.0,
      "longitude": 0.0
    },
    {
      "id": "4060_14",
      "name": "Hart",
      "zipCode": 4060,
      "latitude": 0.0,
      "longitude": 0.0
    },
    {
      "id": "4060_15",
      "name": "Holzheim",
      "zipCode": 4060,
      "latitude": 0.0,
      "longitude": 0.0
    },
    {
      "id": "4060_16",
      "name": "Jetzing",
      "zipCode": 4060,
      "latitude": 0.0,
      "longitude": 0.0
    },
    {
      "id": "4060_17",
      "name": "Wilhering",
      "zipCode": 4060,
      "latitude": 0.0,
      "longitude": 0.0
    },
    {
      "id": "4060_18",
      "name": "Doppl",
      "zipCode": 4060,
      "latitude": 0.0,
      "longitude": 0.0
    },
    {
      "id": "4060_19",
      "name": "Rufling",
      "zipCode": 4060,
      "latitude": 0.0,
      "longitude": 0.0
    },
    {
      "id": "4060_20",
      "name": "Felling",
      "zipCode": 4060,
      "latitude": 0.0,
      "longitude": 0.0
    },
    {
      "id": "4060_21",
      "name": "Reith",
      "zipCode": 4060,
      "latitude": 0.0,
      "longitude": 0.0
    },
    {
      "id": "4061_0",
      "name": "Hitzing",
      "zipCode": 4061,
      "latitude": 0.0,
      "longitude": 0.0
    },
    {
      "id": "4061_1",
      "name": "Rufling",
      "zipCode": 4061,
      "latitude": 0.0,
      "longitude": 0.0
    },
    {
      "id": "4061_2",
      "name": "Langholzfeld",
      "zipCode": 4061,
      "latitude": 0.0,
      "longitude": 0.0
    },
    {
      "id": "4061_3",
      "name": "Wagram",
      "zipCode": 4061,
      "latitude": 0.0,
      "longitude": 0.0
    },
    {
      "id": "4061_4",
      "name": "Aistental",
      "zipCode": 4061,
      "latitude": 0.0,
      "longitude": 0.0
    },
    {
      "id": "4061_5",
      "name": "Thurnharting",
      "zipCode": 4061,
      "latitude": 0.0,
      "longitude": 0.0
    },
    {
      "id": "4061_6",
      "name": "Pasching",
      "zipCode": 4061,
      "latitude": 0.0,
      "longitude": 0.0
    },
    {
      "id": "4062_0",
      "name": "Niederbuch",
      "zipCode": 4062,
      "latitude": 0.0,
      "longitude": 0.0
    },
    {
      "id": "4062_1",
      "name": "Axberg",
      "zipCode": 4062,
      "latitude": 0.0,
      "longitude": 0.0
    },
    {
      "id": "4062_2",
      "name": "Niederfeld",
      "zipCode": 4062,
      "latitude": 0.0,
      "longitude": 0.0
    },
    {
      "id": "4062_3",
      "name": "Thening",
      "zipCode": 4062,
      "latitude": 0.0,
      "longitude": 0.0
    },
    {
      "id": "4062_4",
      "name": "Aichberg",
      "zipCode": 4062,
      "latitude": 0.0,
      "longitude": 0.0
    },
    {
      "id": "4062_5",
      "name": "Au",
      "zipCode": 4062,
      "latitude": 0.0,
      "longitude": 0.0
    },
    {
      "id": "4062_6",
      "name": "Kirchberg",
      "zipCode": 4062,
      "latitude": 0.0,
      "longitude": 0.0
    },
    {
      "id": "4062_7",
      "name": "Schauersfreiling",
      "zipCode": 4062,
      "latitude": 0.0,
      "longitude": 0.0
    },
    {
      "id": "4062_8",
      "name": "Gumpolding",
      "zipCode": 4062,
      "latitude": 0.0,
      "longitude": 0.0
    },
    {
      "id": "4062_9",
      "name": "Thürnau",
      "zipCode": 4062,
      "latitude": 0.0,
      "longitude": 0.0
    },
    {
      "id": "4062_10",
      "name": "Intenham",
      "zipCode": 4062,
      "latitude": 0.0,
      "longitude": 0.0
    },
    {
      "id": "4063_0",
      "name": "Gerersdorf",
      "zipCode": 4063,
      "latitude": 0.0,
      "longitude": 0.0
    },
    {
      "id": "4063_1",
      "name": "Hörsching",
      "zipCode": 4063,
      "latitude": 0.0,
      "longitude": 0.0
    },
    {
      "id": "4063_2",
      "name": "Aistental",
      "zipCode": 4063,
      "latitude": 0.0,
      "longitude": 0.0
    },
    {
      "id": "4063_3",
      "name": "Holzleiten",
      "zipCode": 4063,
      "latitude": 0.0,
      "longitude": 0.0
    },
    {
      "id": "4063_4",
      "name": "&#214;hndorf",
      "zipCode": 4063,
      "latitude": 0.0,
      "longitude": 0.0
    },
    {
      "id": "4063_5",
      "name": "Rudelsdorf",
      "zipCode": 4063,
      "latitude": 0.0,
      "longitude": 0.0
    },
    {
      "id": "4063_6",
      "name": "Rutzing",
      "zipCode": 4063,
      "latitude": 0.0,
      "longitude": 0.0
    },
    {
      "id": "4063_7",
      "name": "Breitbrunn",
      "zipCode": 4063,
      "latitude": 0.0,
      "longitude": 0.0
    },
    {
      "id": "4063_8",
      "name": "Haid",
      "zipCode": 4063,
      "latitude": 0.0,
      "longitude": 0.0
    },
    {
      "id": "4063_9",
      "name": "Lindenlach",
      "zipCode": 4063,
      "latitude": 0.0,
      "longitude": 0.0
    },
    {
      "id": "4063_10",
      "name": "Neubau",
      "zipCode": 4063,
      "latitude": 0.0,
      "longitude": 0.0
    },
    {
      "id": "4063_11",
      "name": "Frindorf",
      "zipCode": 4063,
      "latitude": 0.0,
      "longitude": 0.0
    },
    {
      "id": "4063_12",
      "name": "Neubau",
      "zipCode": 4063,
      "latitude": 0.0,
      "longitude": 0.0
    },
    {
      "id": "4064_0",
      "name": "Freiling",
      "zipCode": 4064,
      "latitude": 0.0,
      "longitude": 0.0
    },
    {
      "id": "4064_1",
      "name": "Oberbachham",
      "zipCode": 4064,
      "latitude": 0.0,
      "longitude": 0.0
    },
    {
      "id": "4064_2",
      "name": "Oberndorf",
      "zipCode": 4064,
      "latitude": 0.0,
      "longitude": 0.0
    },
    {
      "id": "4064_3",
      "name": "Trindorf",
      "zipCode": 4064,
      "latitude": 0.0,
      "longitude": 0.0
    },
    {
      "id": "4064_4",
      "name": "Niederbachham",
      "zipCode": 4064,
      "latitude": 0.0,
      "longitude": 0.0
    },
    {
      "id": "4064_5",
      "name": "Oberbuch",
      "zipCode": 4064,
      "latitude": 0.0,
      "longitude": 0.0
    },
    {
      "id": "4064_6",
      "name": "Staudach",
      "zipCode": 4064,
      "latitude": 0.0,
      "longitude": 0.0
    },
    {
      "id": "4064_7",
      "name": "Hausleiten",
      "zipCode": 4064,
      "latitude": 0.0,
      "longitude": 0.0
    },
    {
      "id": "4064_8",
      "name": "Kirchstetten",
      "zipCode": 4064,
      "latitude": 0.0,
      "longitude": 0.0
    },
    {
      "id": "4064_9",
      "name": "Mitterbachham",
      "zipCode": 4064,
      "latitude": 0.0,
      "longitude": 0.0
    },
    {
      "id": "4064_10",
      "name": "Oftering",
      "zipCode": 4064,
      "latitude": 0.0,
      "longitude": 0.0
    },
    {
      "id": "4064_11",
      "name": "Unterholz",
      "zipCode": 4064,
      "latitude": 0.0,
      "longitude": 0.0
    },
    {
      "id": "4070_0",
      "name": "Seebach",
      "zipCode": 4070,
      "latitude": 0.0,
      "longitude": 0.0
    },
    {
      "id": "4070_1",
      "name": "Sperneck",
      "zipCode": 4070,
      "latitude": 0.0,
      "longitude": 0.0
    },
    {
      "id": "4070_2",
      "name": "Grüben",
      "zipCode": 4070,
      "latitude": 0.0,
      "longitude": 0.0
    },
    {
      "id": "4070_3",
      "name": "Au bei Brandstatt",
      "zipCode": 4070,
      "latitude": 0.0,
      "longitude": 0.0
    },
    {
      "id": "4070_4",
      "name": "Taubenbrunn",
      "zipCode": 4070,
      "latitude": 0.0,
      "longitude": 0.0
    },
    {
      "id": "4070_5",
      "name": "Fraham",
      "zipCode": 4070,
      "latitude": 0.0,
      "longitude": 0.0
    },
    {
      "id": "4070_6",
      "name": "Oberrudling",
      "zipCode": 4070,
      "latitude": 0.0,
      "longitude": 0.0
    },
    {
      "id": "4070_7",
      "name": "Wackersbach",
      "zipCode": 4070,
      "latitude": 0.0,
      "longitude": 0.0
    },
    {
      "id": "4070_8",
      "name": "Wagrein",
      "zipCode": 4070,
      "latitude": 0.0,
      "longitude": 0.0
    },
    {
      "id": "4070_9",
      "name": "Brandstatt",
      "zipCode": 4070,
      "latitude": 0.0,
      "longitude": 0.0
    },
    {
      "id": "4070_10",
      "name": "Hörstorf",
      "zipCode": 4070,
      "latitude": 0.0,
      "longitude": 0.0
    },
    {
      "id": "4070_11",
      "name": "Kappelding",
      "zipCode": 4070,
      "latitude": 0.0,
      "longitude": 0.0
    },
    {
      "id": "4070_12",
      "name": "Oberhillinglah",
      "zipCode": 4070,
      "latitude": 0.0,
      "longitude": 0.0
    },
    {
      "id": "4070_13",
      "name": "Kalköfen",
      "zipCode": 4070,
      "latitude": 0.0,
      "longitude": 0.0
    },
    {
      "id": "4070_14",
      "name": "Limberg",
      "zipCode": 4070,
      "latitude": 0.0,
      "longitude": 0.0
    },
    {
      "id": "4070_15",
      "name": "Puchet",
      "zipCode": 4070,
      "latitude": 0.0,
      "longitude": 0.0
    },
    {
      "id": "4070_16",
      "name": "Unterleiten",
      "zipCode": 4070,
      "latitude": 0.0,
      "longitude": 0.0
    },
    {
      "id": "4070_17",
      "name": "Gstöttenau",
      "zipCode": 4070,
      "latitude": 0.0,
      "longitude": 0.0
    },
    {
      "id": "4070_18",
      "name": "Leumühle",
      "zipCode": 4070,
      "latitude": 0.0,
      "longitude": 0.0
    },
    {
      "id": "4070_19",
      "name": "Unterschaden",
      "zipCode": 4070,
      "latitude": 0.0,
      "longitude": 0.0
    },
    {
      "id": "4070_20",
      "name": "Wörth",
      "zipCode": 4070,
      "latitude": 0.0,
      "longitude": 0.0
    },
    {
      "id": "4070_21",
      "name": "Lahöfen",
      "zipCode": 4070,
      "latitude": 0.0,
      "longitude": 0.0
    },
    {
      "id": "4070_22",
      "name": "Auhof",
      "zipCode": 4070,
      "latitude": 0.0,
      "longitude": 0.0
    },
    {
      "id": "4070_23",
      "name": "Pupping",
      "zipCode": 4070,
      "latitude": 0.0,
      "longitude": 0.0
    },
    {
      "id": "4070_24",
      "name": "Polsenz",
      "zipCode": 4070,
      "latitude": 0.0,
      "longitude": 0.0
    },
    {
      "id": "4070_25",
      "name": "Unterrudling",
      "zipCode": 4070,
      "latitude": 0.0,
      "longitude": 0.0
    },
    {
      "id": "4070_26",
      "name": "Raffelding",
      "zipCode": 4070,
      "latitude": 0.0,
      "longitude": 0.0
    },
    {
      "id": "4070_27",
      "name": "Gstöttenau",
      "zipCode": 4070,
      "latitude": 0.0,
      "longitude": 0.0
    },
    {
      "id": "4070_28",
      "name": "Pupping",
      "zipCode": 4070,
      "latitude": 0.0,
      "longitude": 0.0
    },
    {
      "id": "4070_29",
      "name": "Hartkirchen",
      "zipCode": 4070,
      "latitude": 0.0,
      "longitude": 0.0
    },
    {
      "id": "4070_30",
      "name": "Au bei hohen Steg",
      "zipCode": 4070,
      "latitude": 0.0,
      "longitude": 0.0
    },
    {
      "id": "4070_31",
      "name": "Friedlau",
      "zipCode": 4070,
      "latitude": 0.0,
      "longitude": 0.0
    },
    {
      "id": "4070_32",
      "name": "Inn",
      "zipCode": 4070,
      "latitude": 0.0,
      "longitude": 0.0
    },
    {
      "id": "4070_33",
      "name": "Ranzing",
      "zipCode": 4070,
      "latitude": 0.0,
      "longitude": 0.0
    },
    {
      "id": "4070_34",
      "name": "Deinham",
      "zipCode": 4070,
      "latitude": 0.0,
      "longitude": 0.0
    },
    {
      "id": "4070_35",
      "name": "Altau",
      "zipCode": 4070,
      "latitude": 0.0,
      "longitude": 0.0
    },
    {
      "id": "4070_36",
      "name": "Goldenberg",
      "zipCode": 4070,
      "latitude": 0.0,
      "longitude": 0.0
    },
    {
      "id": "4070_37",
      "name": "Waschpoint",
      "zipCode": 4070,
      "latitude": 0.0,
      "longitude": 0.0
    },
    {
      "id": "4070_38",
      "name": "Eferding",
      "zipCode": 4070,
      "latitude": 0.0,
      "longitude": 0.0
    },
    {
      "id": "4070_39",
      "name": "Trattwörth",
      "zipCode": 4070,
      "latitude": 0.0,
      "longitude": 0.0
    },
    {
      "id": "4070_40",
      "name": "Unterhillinglah",
      "zipCode": 4070,
      "latitude": 0.0,
      "longitude": 0.0
    },
    {
      "id": "4070_41",
      "name": "Gstocket",
      "zipCode": 4070,
      "latitude": 0.0,
      "longitude": 0.0
    },
    {
      "id": "4070_42",
      "name": "Hinzenbach",
      "zipCode": 4070,
      "latitude": 0.0,
      "longitude": 0.0
    },
    {
      "id": "4070_43",
      "name": "Stieglhöfen",
      "zipCode": 4070,
      "latitude": 0.0,
      "longitude": 0.0
    },
    {
      "id": "4070_44",
      "name": "Oberschaden",
      "zipCode": 4070,
      "latitude": 0.0,
      "longitude": 0.0
    },
    {
      "id": "4070_45",
      "name": "Kleinstroheim",
      "zipCode": 4070,
      "latitude": 0.0,
      "longitude": 0.0
    },
    {
      "id": "4070_46",
      "name": "Güttlfeld",
      "zipCode": 4070,
      "latitude": 0.0,
      "longitude": 0.0
    },
    {
      "id": "4070_47",
      "name": "Simbach",
      "zipCode": 4070,
      "latitude": 0.0,
      "longitude": 0.0
    },
    {
      "id": "4072_0",
      "name": "Aham",
      "zipCode": 4072,
      "latitude": 0.0,
      "longitude": 0.0
    },
    {
      "id": "4072_1",
      "name": "Kleinhart",
      "zipCode": 4072,
      "latitude": 0.0,
      "longitude": 0.0
    },
    {
      "id": "4072_2",
      "name": "Annaberg",
      "zipCode": 4072,
      "latitude": 0.0,
      "longitude": 0.0
    },
    {
      "id": "4072_3",
      "name": "Kranzing",
      "zipCode": 4072,
      "latitude": 0.0,
      "longitude": 0.0
    },
    {
      "id": "4072_4",
      "name": "Großhart",
      "zipCode": 4072,
      "latitude": 0.0,
      "longitude": 0.0
    },
    {
      "id": "4072_5",
      "name": "Bergham",
      "zipCode": 4072,
      "latitude": 0.0,
      "longitude": 0.0
    },
    {
      "id": "4072_6",
      "name": "Hartheim",
      "zipCode": 4072,
      "latitude": 0.0,
      "longitude": 0.0
    },
    {
      "id": "4072_7",
      "name": "Straßham",
      "zipCode": 4072,
      "latitude": 0.0,
      "longitude": 0.0
    },
    {
      "id": "4072_8",
      "name": "Oberhartheim",
      "zipCode": 4072,
      "latitude": 0.0,
      "longitude": 0.0
    },
    {
      "id": "4072_9",
      "name": "Weidach",
      "zipCode": 4072,
      "latitude": 0.0,
      "longitude": 0.0
    },
    {
      "id": "4072_10",
      "name": "Winkeln",
      "zipCode": 4072,
      "latitude": 0.0,
      "longitude": 0.0
    },
    {
      "id": "4072_11",
      "name": "Staudach",
      "zipCode": 4072,
      "latitude": 0.0,
      "longitude": 0.0
    },
    {
      "id": "4072_12",
      "name": "Straß",
      "zipCode": 4072,
      "latitude": 0.0,
      "longitude": 0.0
    },
    {
      "id": "4072_13",
      "name": "Ufer",
      "zipCode": 4072,
      "latitude": 0.0,
      "longitude": 0.0
    },
    {
      "id": "4072_14",
      "name": "Alkoven",
      "zipCode": 4072,
      "latitude": 0.0,
      "longitude": 0.0
    },
    {
      "id": "4072_15",
      "name": "Emling",
      "zipCode": 4072,
      "latitude": 0.0,
      "longitude": 0.0
    },
    {
      "id": "4072_16",
      "name": "Polsing",
      "zipCode": 4072,
      "latitude": 0.0,
      "longitude": 0.0
    },
    {
      "id": "4072_17",
      "name": "Puchham",
      "zipCode": 4072,
      "latitude": 0.0,
      "longitude": 0.0
    },
    {
      "id": "4072_18",
      "name": "Forst",
      "zipCode": 4072,
      "latitude": 0.0,
      "longitude": 0.0
    },
    {
      "id": "4072_19",
      "name": "Gstocket",
      "zipCode": 4072,
      "latitude": 0.0,
      "longitude": 0.0
    },
    {
      "id": "4073_0",
      "name": "Dörnbach",
      "zipCode": 4073,
      "latitude": 0.0,
      "longitude": 0.0
    },
    {
      "id": "4073_1",
      "name": "Lohnharting",
      "zipCode": 4073,
      "latitude": 0.0,
      "longitude": 0.0
    },
    {
      "id": "4073_2",
      "name": "Schönering",
      "zipCode": 4073,
      "latitude": 0.0,
      "longitude": 0.0
    },
    {
      "id": "4073_3",
      "name": "Appersberg",
      "zipCode": 4073,
      "latitude": 0.0,
      "longitude": 0.0
    },
    {
      "id": "4073_4",
      "name": "Mühlbach",
      "zipCode": 4073,
      "latitude": 0.0,
      "longitude": 0.0
    },
    {
      "id": "4073_5",
      "name": "Edramsberg",
      "zipCode": 4073,
      "latitude": 0.0,
      "longitude": 0.0
    },
    {
      "id": "4073_6",
      "name": "Katzing",
      "zipCode": 4073,
      "latitude": 0.0,
      "longitude": 0.0
    },
    {
      "id": "4073_7",
      "name": "Reith",
      "zipCode": 4073,
      "latitude": 0.0,
      "longitude": 0.0
    },
    {
      "id": "4073_8",
      "name": "Winkeln",
      "zipCode": 4073,
      "latitude": 0.0,
      "longitude": 0.0
    },
    {
      "id": "4073_9",
      "name": "Fall",
      "zipCode": 4073,
      "latitude": 0.0,
      "longitude": 0.0
    },
    {
      "id": "4073_10",
      "name": "Hitzing",
      "zipCode": 4073,
      "latitude": 0.0,
      "longitude": 0.0
    },
    {
      "id": "4073_11",
      "name": "Ufer",
      "zipCode": 4073,
      "latitude": 0.0,
      "longitude": 0.0
    },
    {
      "id": "4073_12",
      "name": "Höf",
      "zipCode": 4073,
      "latitude": 0.0,
      "longitude": 0.0
    },
    {
      "id": "4073_13",
      "name": "Thalham",
      "zipCode": 4073,
      "latitude": 0.0,
      "longitude": 0.0
    },
    {
      "id": "4073_14",
      "name": "Wilhering",
      "zipCode": 4073,
      "latitude": 0.0,
      "longitude": 0.0
    },
    {
      "id": "4074_0",
      "name": "Gstocket",
      "zipCode": 4074,
      "latitude": 0.0,
      "longitude": 0.0
    },
    {
      "id": "4074_1",
      "name": "Reith",
      "zipCode": 4074,
      "latitude": 0.0,
      "longitude": 0.0
    },
    {
      "id": "4074_2",
      "name": "Taubing",
      "zipCode": 4074,
      "latitude": 0.0,
      "longitude": 0.0
    },
    {
      "id": "4074_3",
      "name": "Mayrhof",
      "zipCode": 4074,
      "latitude": 0.0,
      "longitude": 0.0
    },
    {
      "id": "4074_4",
      "name": "Wögern",
      "zipCode": 4074,
      "latitude": 0.0,
      "longitude": 0.0
    },
    {
      "id": "4074_5",
      "name": "Schnellersdorf",
      "zipCode": 4074,
      "latitude": 0.0,
      "longitude": 0.0
    },
    {
      "id": "4074_6",
      "name": "Stroheim",
      "zipCode": 4074,
      "latitude": 0.0,
      "longitude": 0.0
    },
    {
      "id": "4074_7",
      "name": "Birihub",
      "zipCode": 4074,
      "latitude": 0.0,
      "longitude": 0.0
    },
    {
      "id": "4074_8",
      "name": "Windischdorf",
      "zipCode": 4074,
      "latitude": 0.0,
      "longitude": 0.0
    },
    {
      "id": "4074_9",
      "name": "Schaumberg",
      "zipCode": 4074,
      "latitude": 0.0,
      "longitude": 0.0
    },
    {
      "id": "4074_10",
      "name": "Götzenberg",
      "zipCode": 4074,
      "latitude": 0.0,
      "longitude": 0.0
    },
    {
      "id": "4074_11",
      "name": "Knieparz ob der Leiten",
      "zipCode": 4074,
      "latitude": 0.0,
      "longitude": 0.0
    },
    {
      "id": "4074_12",
      "name": "Großstroheim",
      "zipCode": 4074,
      "latitude": 0.0,
      "longitude": 0.0
    },
    {
      "id": "4074_13",
      "name": "Kleinstroheim",
      "zipCode": 4074,
      "latitude": 0.0,
      "longitude": 0.0
    },
    {
      "id": "4074_14",
      "name": "Kobling",
      "zipCode": 4074,
      "latitude": 0.0,
      "longitude": 0.0
    },
    {
      "id": "4074_15",
      "name": "Mitterstroheim",
      "zipCode": 4074,
      "latitude": 0.0,
      "longitude": 0.0
    },
    {
      "id": "4074_16",
      "name": "Troß",
      "zipCode": 4074,
      "latitude": 0.0,
      "longitude": 0.0
    },
    {
      "id": "4074_17",
      "name": "Gmeinholz",
      "zipCode": 4074,
      "latitude": 0.0,
      "longitude": 0.0
    },
    {
      "id": "4074_18",
      "name": "Stallberg",
      "zipCode": 4074,
      "latitude": 0.0,
      "longitude": 0.0
    },
    {
      "id": "4075_0",
      "name": "Aumühle",
      "zipCode": 4075,
      "latitude": 0.0,
      "longitude": 0.0
    },
    {
      "id": "4075_1",
      "name": "Steinholz",
      "zipCode": 4075,
      "latitude": 0.0,
      "longitude": 0.0
    },
    {
      "id": "4076_0",
      "name": "Fürneredt",
      "zipCode": 4076,
      "latitude": 0.0,
      "longitude": 0.0
    },
    {
      "id": "4076_1",
      "name": "Karling",
      "zipCode": 4076,
      "latitude": 0.0,
      "longitude": 0.0
    },
    {
      "id": "4076_2",
      "name": "Leopoldsberg",
      "zipCode": 4076,
      "latitude": 0.0,
      "longitude": 0.0
    },
    {
      "id": "4076_3",
      "name": "Wieshof",
      "zipCode": 4076,
      "latitude": 0.0,
      "longitude": 0.0
    },
    {
      "id": "4076_4",
      "name": "Sankt Marienkirchen an der Polsenz",
      "zipCode": 4076,
      "latitude": 0.0,
      "longitude": 0.0
    },
    {
      "id": "4076_5",
      "name": "Unterfreundorf",
      "zipCode": 4076,
      "latitude": 0.0,
      "longitude": 0.0
    },
    {
      "id": "4076_6",
      "name": "Lengau",
      "zipCode": 4076,
      "latitude": 0.0,
      "longitude": 0.0
    },
    {
      "id": "4076_7",
      "name": "Untergrub",
      "zipCode": 4076,
      "latitude": 0.0,
      "longitude": 0.0
    },
    {
      "id": "4076_8",
      "name": "Valtau",
      "zipCode": 4076,
      "latitude": 0.0,
      "longitude": 0.0
    },
    {
      "id": "4076_9",
      "name": "Doppl",
      "zipCode": 4076,
      "latitude": 0.0,
      "longitude": 0.0
    },
    {
      "id": "4076_10",
      "name": "Obergrub",
      "zipCode": 4076,
      "latitude": 0.0,
      "longitude": 0.0
    },
    {
      "id": "4076_11",
      "name": "Eben",
      "zipCode": 4076,
      "latitude": 0.0,
      "longitude": 0.0
    },
    {
      "id": "4076_12",
      "name": "Furth",
      "zipCode": 4076,
      "latitude": 0.0,
      "longitude": 0.0
    },
    {
      "id": "4076_13",
      "name": "Holzwiesen",
      "zipCode": 4076,
      "latitude": 0.0,
      "longitude": 0.0
    },
    {
      "id": "4076_14",
      "name": "Pernau",
      "zipCode": 4076,
      "latitude": 0.0,
      "longitude": 0.0
    },
    {
      "id": "4076_15",
      "name": "Polsenz",
      "zipCode": 4076,
      "latitude": 0.0,
      "longitude": 0.0
    },
    {
      "id": "4076_16",
      "name": "Kirchholz",
      "zipCode": 4076,
      "latitude": 0.0,
      "longitude": 0.0
    },
    {
      "id": "4076_17",
      "name": "Sommersberg",
      "zipCode": 4076,
      "latitude": 0.0,
      "longitude": 0.0
    },
    {
      "id": "4081_0",
      "name": "Hinterberg",
      "zipCode": 4081,
      "latitude": 0.0,
      "longitude": 0.0
    },
    {
      "id": "4081_1",
      "name": "Hörmannsedt",
      "zipCode": 4081,
      "latitude": 0.0,
      "longitude": 0.0
    },
    {
      "id": "4081_2",
      "name": "Hart ob Haizing",
      "zipCode": 4081,
      "latitude": 0.0,
      "longitude": 0.0
    },
    {
      "id": "4081_3",
      "name": "Würting",
      "zipCode": 4081,
      "latitude": 0.0,
      "longitude": 0.0
    },
    {
      "id": "4081_4",
      "name": "Hartkirchen",
      "zipCode": 4081,
      "latitude": 0.0,
      "longitude": 0.0
    },
    {
      "id": "4081_5",
      "name": "Hilkering",
      "zipCode": 4081,
      "latitude": 0.0,
      "longitude": 0.0
    },
    {
      "id": "4081_6",
      "name": "Kellnering",
      "zipCode": 4081,
      "latitude": 0.0,
      "longitude": 0.0
    },
    {
      "id": "4081_7",
      "name": "Rienberg",
      "zipCode": 4081,
      "latitude": 0.0,
      "longitude": 0.0
    },
    {
      "id": "4081_8",
      "name": "Schönleiten",
      "zipCode": 4081,
      "latitude": 0.0,
      "longitude": 0.0
    },
    {
      "id": "4081_9",
      "name": "Vornholz",
      "zipCode": 4081,
      "latitude": 0.0,
      "longitude": 0.0
    },
    {
      "id": "4081_10",
      "name": "Wolfsfurth",
      "zipCode": 4081,
      "latitude": 0.0,
      "longitude": 0.0
    },
    {
      "id": "4081_11",
      "name": "Gstaltenhof",
      "zipCode": 4081,
      "latitude": 0.0,
      "longitude": 0.0
    },
    {
      "id": "4081_12",
      "name": "Dunzing",
      "zipCode": 4081,
      "latitude": 0.0,
      "longitude": 0.0
    },
    {
      "id": "4081_13",
      "name": "Knieparz unter der Leithen",
      "zipCode": 4081,
      "latitude": 0.0,
      "longitude": 0.0
    },
    {
      "id": "4081_14",
      "name": "Poxham",
      "zipCode": 4081,
      "latitude": 0.0,
      "longitude": 0.0
    },
    {
      "id": "4081_15",
      "name": "Zagl",
      "zipCode": 4081,
      "latitude": 0.0,
      "longitude": 0.0
    },
    {
      "id": "4081_16",
      "name": "Gfehret",
      "zipCode": 4081,
      "latitude": 0.0,
      "longitude": 0.0
    },
    {
      "id": "4081_17",
      "name": "Hinteraigen",
      "zipCode": 4081,
      "latitude": 0.0,
      "longitude": 0.0
    },
    {
      "id": "4081_18",
      "name": "Karling",
      "zipCode": 4081,
      "latitude": 0.0,
      "longitude": 0.0
    },
    {
      "id": "4081_19",
      "name": "Lacken",
      "zipCode": 4081,
      "latitude": 0.0,
      "longitude": 0.0
    },
    {
      "id": "4081_20",
      "name": "Mußbach",
      "zipCode": 4081,
      "latitude": 0.0,
      "longitude": 0.0
    },
    {
      "id": "4081_21",
      "name": "Oed in Bergen",
      "zipCode": 4081,
      "latitude": 0.0,
      "longitude": 0.0
    },
    {
      "id": "4081_22",
      "name": "Pfaffing",
      "zipCode": 4081,
      "latitude": 0.0,
      "longitude": 0.0
    },
    {
      "id": "4081_23",
      "name": "Schaumberg",
      "zipCode": 4081,
      "latitude": 0.0,
      "longitude": 0.0
    },
    {
      "id": "4081_24",
      "name": "Senghübl",
      "zipCode": 4081,
      "latitude": 0.0,
      "longitude": 0.0
    },
    {
      "id": "4081_25",
      "name": "Steinwand",
      "zipCode": 4081,
      "latitude": 0.0,
      "longitude": 0.0
    },
    {
      "id": "4081_26",
      "name": "Deinham",
      "zipCode": 4081,
      "latitude": 0.0,
      "longitude": 0.0
    },
    {
      "id": "4081_27",
      "name": "Hachlham",
      "zipCode": 4081,
      "latitude": 0.0,
      "longitude": 0.0
    },
    {
      "id": "4081_28",
      "name": "Hart ob Hacking",
      "zipCode": 4081,
      "latitude": 0.0,
      "longitude": 0.0
    },
    {
      "id": "4081_29",
      "name": "Dorf",
      "zipCode": 4081,
      "latitude": 0.0,
      "longitude": 0.0
    },
    {
      "id": "4081_30",
      "name": "Gstaltenhof",
      "zipCode": 4081,
      "latitude": 0.0,
      "longitude": 0.0
    },
    {
      "id": "4081_31",
      "name": "Hacking",
      "zipCode": 4081,
      "latitude": 0.0,
      "longitude": 0.0
    },
    {
      "id": "4081_32",
      "name": "Haizing",
      "zipCode": 4081,
      "latitude": 0.0,
      "longitude": 0.0
    },
    {
      "id": "4081_33",
      "name": "Koppl",
      "zipCode": 4081,
      "latitude": 0.0,
      "longitude": 0.0
    },
    {
      "id": "4081_34",
      "name": "Paching",
      "zipCode": 4081,
      "latitude": 0.0,
      "longitude": 0.0
    },
    {
      "id": "4081_35",
      "name": "Rathen",
      "zipCode": 4081,
      "latitude": 0.0,
      "longitude": 0.0
    },
    {
      "id": "4081_36",
      "name": "Reith",
      "zipCode": 4081,
      "latitude": 0.0,
      "longitude": 0.0
    },
    {
      "id": "4081_37",
      "name": "Hainbach",
      "zipCode": 4081,
      "latitude": 0.0,
      "longitude": 0.0
    },
    {
      "id": "4082_0",
      "name": "Sommerberg",
      "zipCode": 4082,
      "latitude": 0.0,
      "longitude": 0.0
    },
    {
      "id": "4082_1",
      "name": "Ruprechting",
      "zipCode": 4082,
      "latitude": 0.0,
      "longitude": 0.0
    },
    {
      "id": "4082_2",
      "name": "Aschach an der Donau",
      "zipCode": 4082,
      "latitude": 0.0,
      "longitude": 0.0
    },
    {
      "id": "4083_0",
      "name": "Dunzing",
      "zipCode": 4083,
      "latitude": 0.0,
      "longitude": 0.0
    },
    {
      "id": "4083_1",
      "name": "Gemersdorf",
      "zipCode": 4083,
      "latitude": 0.0,
      "longitude": 0.0
    },
    {
      "id": "4083_2",
      "name": "Schlögen",
      "zipCode": 4083,
      "latitude": 0.0,
      "longitude": 0.0
    },
    {
      "id": "4083_3",
      "name": "Schlögenleiten",
      "zipCode": 4083,
      "latitude": 0.0,
      "longitude": 0.0
    },
    {
      "id": "4083_4",
      "name": "Starz",
      "zipCode": 4083,
      "latitude": 0.0,
      "longitude": 0.0
    },
    {
      "id": "4083_5",
      "name": "Sonnleiten",
      "zipCode": 4083,
      "latitude": 0.0,
      "longitude": 0.0
    },
    {
      "id": "4083_6",
      "name": "Bach",
      "zipCode": 4083,
      "latitude": 0.0,
      "longitude": 0.0
    },
    {
      "id": "4083_7",
      "name": "Inzell",
      "zipCode": 4083,
      "latitude": 0.0,
      "longitude": 0.0
    },
    {
      "id": "4083_8",
      "name": "Komas",
      "zipCode": 4083,
      "latitude": 0.0,
      "longitude": 0.0
    },
    {
      "id": "4083_9",
      "name": "Linetshub",
      "zipCode": 4083,
      "latitude": 0.0,
      "longitude": 0.0
    },
    {
      "id": "4083_10",
      "name": "Untergschwendt",
      "zipCode": 4083,
      "latitude": 0.0,
      "longitude": 0.0
    },
    {
      "id": "4083_11",
      "name": "Bäckenhof",
      "zipCode": 4083,
      "latitude": 0.0,
      "longitude": 0.0
    },
    {
      "id": "4083_12",
      "name": "Eckersdorf",
      "zipCode": 4083,
      "latitude": 0.0,
      "longitude": 0.0
    },
    {
      "id": "4083_13",
      "name": "Mannsdorf",
      "zipCode": 4083,
      "latitude": 0.0,
      "longitude": 0.0
    },
    {
      "id": "4083_14",
      "name": "Mitterberg",
      "zipCode": 4083,
      "latitude": 0.0,
      "longitude": 0.0
    },
    {
      "id": "4083_15",
      "name": "Berg",
      "zipCode": 4083,
      "latitude": 0.0,
      "longitude": 0.0
    },
    {
      "id": "4083_16",
      "name": "Obergschwendt",
      "zipCode": 4083,
      "latitude": 0.0,
      "longitude": 0.0
    },
    {
      "id": "4083_17",
      "name": "Oberhub",
      "zipCode": 4083,
      "latitude": 0.0,
      "longitude": 0.0
    },
    {
      "id": "4083_18",
      "name": "Wies",
      "zipCode": 4083,
      "latitude": 0.0,
      "longitude": 0.0
    },
    {
      "id": "4083_19",
      "name": "Au",
      "zipCode": 4083,
      "latitude": 0.0,
      "longitude": 0.0
    },
    {
      "id": "4083_20",
      "name": "Pamet",
      "zipCode": 4083,
      "latitude": 0.0,
      "longitude": 0.0
    },
    {
      "id": "4083_21",
      "name": "Pühret",
      "zipCode": 4083,
      "latitude": 0.0,
      "longitude": 0.0
    },
    {
      "id": "4083_22",
      "name": "Wiesing",
      "zipCode": 4083,
      "latitude": 0.0,
      "longitude": 0.0
    },
    {
      "id": "4083_23",
      "name": "Donauleiten",
      "zipCode": 4083,
      "latitude": 0.0,
      "longitude": 0.0
    },
    {
      "id": "4083_24",
      "name": "Kobling",
      "zipCode": 4083,
      "latitude": 0.0,
      "longitude": 0.0
    },
    {
      "id": "4083_25",
      "name": "Kolleck",
      "zipCode": 4083,
      "latitude": 0.0,
      "longitude": 0.0
    },
    {
      "id": "4083_26",
      "name": "Reith",
      "zipCode": 4083,
      "latitude": 0.0,
      "longitude": 0.0
    },
    {
      "id": "4083_27",
      "name": "Schauerdoppl",
      "zipCode": 4083,
      "latitude": 0.0,
      "longitude": 0.0
    },
    {
      "id": "4083_28",
      "name": "Parz",
      "zipCode": 4083,
      "latitude": 0.0,
      "longitude": 0.0
    },
    {
      "id": "4083_29",
      "name": "Grub",
      "zipCode": 4083,
      "latitude": 0.0,
      "longitude": 0.0
    },
    {
      "id": "4083_30",
      "name": "Hinterberg",
      "zipCode": 4083,
      "latitude": 0.0,
      "longitude": 0.0
    },
    {
      "id": "4083_31",
      "name": "Lehen",
      "zipCode": 4083,
      "latitude": 0.0,
      "longitude": 0.0
    },
    {
      "id": "4083_32",
      "name": "Mühlbach",
      "zipCode": 4083,
      "latitude": 0.0,
      "longitude": 0.0
    },
    {
      "id": "4083_33",
      "name": "Oedt",
      "zipCode": 4083,
      "latitude": 0.0,
      "longitude": 0.0
    },
    {
      "id": "4083_34",
      "name": "Sieberstal",
      "zipCode": 4083,
      "latitude": 0.0,
      "longitude": 0.0
    },
    {
      "id": "4083_35",
      "name": "Dorf",
      "zipCode": 4083,
      "latitude": 0.0,
      "longitude": 0.0
    },
    {
      "id": "4083_36",
      "name": "Haibach ob der Donau",
      "zipCode": 4083,
      "latitude": 0.0,
      "longitude": 0.0
    },
    {
      "id": "4083_37",
      "name": "Moos",
      "zipCode": 4083,
      "latitude": 0.0,
      "longitude": 0.0
    },
    {
      "id": "4083_38",
      "name": "Pichl",
      "zipCode": 4083,
      "latitude": 0.0,
      "longitude": 0.0
    },
    {
      "id": "4083_39",
      "name": "Rennersdorf",
      "zipCode": 4083,
      "latitude": 0.0,
      "longitude": 0.0
    },
    {
      "id": "4084_0",
      "name": "Dittersdorf",
      "zipCode": 4084,
      "latitude": 0.0,
      "longitude": 0.0
    },
    {
      "id": "4084_1",
      "name": "Dörfledt",
      "zipCode": 4084,
      "latitude": 0.0,
      "longitude": 0.0
    },
    {
      "id": "4084_2",
      "name": "Freiling",
      "zipCode": 4084,
      "latitude": 0.0,
      "longitude": 0.0
    },
    {
      "id": "4084_3",
      "name": "Kropfleiten",
      "zipCode": 4084,
      "latitude": 0.0,
      "longitude": 0.0
    },
    {
      "id": "4084_4",
      "name": "Mühlgraben",
      "zipCode": 4084,
      "latitude": 0.0,
      "longitude": 0.0
    },
    {
      "id": "4084_5",
      "name": "St. Agatha",
      "zipCode": 4084,
      "latitude": 0.0,
      "longitude": 0.0
    },
    {
      "id": "4084_6",
      "name": "Ernleiten",
      "zipCode": 4084,
      "latitude": 0.0,
      "longitude": 0.0
    },
    {
      "id": "4084_7",
      "name": "Etzing",
      "zipCode": 4084,
      "latitude": 0.0,
      "longitude": 0.0
    },
    {
      "id": "4084_8",
      "name": "Hundsdorf",
      "zipCode": 4084,
      "latitude": 0.0,
      "longitude": 0.0
    },
    {
      "id": "4084_9",
      "name": "Scheiblberg",
      "zipCode": 4084,
      "latitude": 0.0,
      "longitude": 0.0
    },
    {
      "id": "4084_10",
      "name": "Waid",
      "zipCode": 4084,
      "latitude": 0.0,
      "longitude": 0.0
    },
    {
      "id": "4084_11",
      "name": "Hölzing",
      "zipCode": 4084,
      "latitude": 0.0,
      "longitude": 0.0
    },
    {
      "id": "4084_12",
      "name": "Hollerbrunn",
      "zipCode": 4084,
      "latitude": 0.0,
      "longitude": 0.0
    },
    {
      "id": "4084_13",
      "name": "Löwengrub",
      "zipCode": 4084,
      "latitude": 0.0,
      "longitude": 0.0
    },
    {
      "id": "4084_14",
      "name": "Miniberg",
      "zipCode": 4084,
      "latitude": 0.0,
      "longitude": 0.0
    },
    {
      "id": "4084_15",
      "name": "Uring",
      "zipCode": 4084,
      "latitude": 0.0,
      "longitude": 0.0
    },
    {
      "id": "4084_16",
      "name": "Holzwühr",
      "zipCode": 4084,
      "latitude": 0.0,
      "longitude": 0.0
    },
    {
      "id": "4084_17",
      "name": "Löcking",
      "zipCode": 4084,
      "latitude": 0.0,
      "longitude": 0.0
    },
    {
      "id": "4084_18",
      "name": "Sattlberg",
      "zipCode": 4084,
      "latitude": 0.0,
      "longitude": 0.0
    },
    {
      "id": "4084_19",
      "name": "Schabetsberg",
      "zipCode": 4084,
      "latitude": 0.0,
      "longitude": 0.0
    },
    {
      "id": "4084_20",
      "name": "Gschwendt",
      "zipCode": 4084,
      "latitude": 0.0,
      "longitude": 0.0
    },
    {
      "id": "4084_21",
      "name": "Pötzling",
      "zipCode": 4084,
      "latitude": 0.0,
      "longitude": 0.0
    },
    {
      "id": "4084_22",
      "name": "Riesching",
      "zipCode": 4084,
      "latitude": 0.0,
      "longitude": 0.0
    },
    {
      "id": "4084_23",
      "name": "Bräuleiten",
      "zipCode": 4084,
      "latitude": 0.0,
      "longitude": 0.0
    },
    {
      "id": "4084_24",
      "name": "Dunzing",
      "zipCode": 4084,
      "latitude": 0.0,
      "longitude": 0.0
    },
    {
      "id": "4084_25",
      "name": "Gmein",
      "zipCode": 4084,
      "latitude": 0.0,
      "longitude": 0.0
    },
    {
      "id": "4084_26",
      "name": "Götzling",
      "zipCode": 4084,
      "latitude": 0.0,
      "longitude": 0.0
    },
    {
      "id": "4084_27",
      "name": "Hanging",
      "zipCode": 4084,
      "latitude": 0.0,
      "longitude": 0.0
    },
    {
      "id": "4084_28",
      "name": "Hatzing",
      "zipCode": 4084,
      "latitude": 0.0,
      "longitude": 0.0
    },
    {
      "id": "4084_29",
      "name": "Parz",
      "zipCode": 4084,
      "latitude": 0.0,
      "longitude": 0.0
    },
    {
      "id": "4084_30",
      "name": "Bäckenhof",
      "zipCode": 4084,
      "latitude": 0.0,
      "longitude": 0.0
    },
    {
      "id": "4084_31",
      "name": "Königsdorf",
      "zipCode": 4084,
      "latitude": 0.0,
      "longitude": 0.0
    },
    {
      "id": "4084_32",
      "name": "Scharzeredt",
      "zipCode": 4084,
      "latitude": 0.0,
      "longitude": 0.0
    },
    {
      "id": "4084_33",
      "name": "Sonnleiten",
      "zipCode": 4084,
      "latitude": 0.0,
      "longitude": 0.0
    },
    {
      "id": "4084_34",
      "name": "Ensfeld",
      "zipCode": 4084,
      "latitude": 0.0,
      "longitude": 0.0
    },
    {
      "id": "4084_35",
      "name": "Henzing",
      "zipCode": 4084,
      "latitude": 0.0,
      "longitude": 0.0
    },
    {
      "id": "4084_36",
      "name": "Kolmhof",
      "zipCode": 4084,
      "latitude": 0.0,
      "longitude": 0.0
    },
    {
      "id": "4084_37",
      "name": "Mitterberg",
      "zipCode": 4084,
      "latitude": 0.0,
      "longitude": 0.0
    },
    {
      "id": "4084_38",
      "name": "Schmieding",
      "zipCode": 4084,
      "latitude": 0.0,
      "longitude": 0.0
    },
    {
      "id": "4084_39",
      "name": "Steinzen",
      "zipCode": 4084,
      "latitude": 0.0,
      "longitude": 0.0
    },
    {
      "id": "4084_40",
      "name": "Hausleithen",
      "zipCode": 4084,
      "latitude": 0.0,
      "longitude": 0.0
    },
    {
      "id": "4085_0",
      "name": "Edt",
      "zipCode": 4085,
      "latitude": 0.0,
      "longitude": 0.0
    },
    {
      "id": "4085_1",
      "name": "Erledt",
      "zipCode": 4085,
      "latitude": 0.0,
      "longitude": 0.0
    },
    {
      "id": "4085_2",
      "name": "Hundorf",
      "zipCode": 4085,
      "latitude": 0.0,
      "longitude": 0.0
    },
    {
      "id": "4085_3",
      "name": "Kühdoppl",
      "zipCode": 4085,
      "latitude": 0.0,
      "longitude": 0.0
    },
    {
      "id": "4085_4",
      "name": "Straß",
      "zipCode": 4085,
      "latitude": 0.0,
      "longitude": 0.0
    },
    {
      "id": "4085_5",
      "name": "Wesenufer",
      "zipCode": 4085,
      "latitude": 0.0,
      "longitude": 0.0
    },
    {
      "id": "4085_6",
      "name": "Wimm",
      "zipCode": 4085,
      "latitude": 0.0,
      "longitude": 0.0
    },
    {
      "id": "4085_7",
      "name": "Atzersdorf",
      "zipCode": 4085,
      "latitude": 0.0,
      "longitude": 0.0
    },
    {
      "id": "4085_8",
      "name": "Oberngrub",
      "zipCode": 4085,
      "latitude": 0.0,
      "longitude": 0.0
    },
    {
      "id": "4085_9",
      "name": "Freizell",
      "zipCode": 4085,
      "latitude": 0.0,
      "longitude": 0.0
    },
    {
      "id": "4085_10",
      "name": "Dankmairing",
      "zipCode": 4085,
      "latitude": 0.0,
      "longitude": 0.0
    },
    {
      "id": "4085_11",
      "name": "Voredt",
      "zipCode": 4085,
      "latitude": 0.0,
      "longitude": 0.0
    },
    {
      "id": "4085_12",
      "name": "Kager",
      "zipCode": 4085,
      "latitude": 0.0,
      "longitude": 0.0
    },
    {
      "id": "4085_13",
      "name": "Ort",
      "zipCode": 4085,
      "latitude": 0.0,
      "longitude": 0.0
    },
    {
      "id": "4085_14",
      "name": "Ratzling",
      "zipCode": 4085,
      "latitude": 0.0,
      "longitude": 0.0
    },
    {
      "id": "4085_15",
      "name": "Kling",
      "zipCode": 4085,
      "latitude": 0.0,
      "longitude": 0.0
    },
    {
      "id": "4085_16",
      "name": "Mühlberg",
      "zipCode": 4085,
      "latitude": 0.0,
      "longitude": 0.0
    },
    {
      "id": "4085_17",
      "name": "Saulehen",
      "zipCode": 4085,
      "latitude": 0.0,
      "longitude": 0.0
    },
    {
      "id": "4085_18",
      "name": "Waldbach",
      "zipCode": 4085,
      "latitude": 0.0,
      "longitude": 0.0
    },
    {
      "id": "4085_19",
      "name": "Niederranna",
      "zipCode": 4085,
      "latitude": 0.0,
      "longitude": 0.0
    },
    {
      "id": "4085_20",
      "name": "Kramesau",
      "zipCode": 4085,
      "latitude": 0.0,
      "longitude": 0.0
    },
    {
      "id": "4085_21",
      "name": "Graben",
      "zipCode": 4085,
      "latitude": 0.0,
      "longitude": 0.0
    },
    {
      "id": "4085_22",
      "name": "Au",
      "zipCode": 4085,
      "latitude": 0.0,
      "longitude": 0.0
    },
    {
      "id": "4085_23",
      "name": "Aichberg",
      "zipCode": 4085,
      "latitude": 0.0,
      "longitude": 0.0
    },
    {
      "id": "4085_24",
      "name": "Buchen",
      "zipCode": 4085,
      "latitude": 0.0,
      "longitude": 0.0
    },
    {
      "id": "4085_25",
      "name": "Pasching",
      "zipCode": 4085,
      "latitude": 0.0,
      "longitude": 0.0
    },
    {
      "id": "4085_26",
      "name": "Schützenedt",
      "zipCode": 4085,
      "latitude": 0.0,
      "longitude": 0.0
    },
    {
      "id": "4085_27",
      "name": "Waldkirchen",
      "zipCode": 4085,
      "latitude": 0.0,
      "longitude": 0.0
    },
    {
      "id": "4085_28",
      "name": "Niederranna",
      "zipCode": 4085,
      "latitude": 0.0,
      "longitude": 0.0
    },
    {
      "id": "4085_29",
      "name": "Schickedt",
      "zipCode": 4085,
      "latitude": 0.0,
      "longitude": 0.0
    },
    {
      "id": "4085_30",
      "name": "Sittling",
      "zipCode": 4085,
      "latitude": 0.0,
      "longitude": 0.0
    },
    {
      "id": "4085_31",
      "name": "Vornwald",
      "zipCode": 4085,
      "latitude": 0.0,
      "longitude": 0.0
    },
    {
      "id": "4090_0",
      "name": "Kronschlag",
      "zipCode": 4090,
      "latitude": 0.0,
      "longitude": 0.0
    },
    {
      "id": "4090_1",
      "name": "Engelhartszell",
      "zipCode": 4090,
      "latitude": 0.0,
      "longitude": 0.0
    },
    {
      "id": "4090_2",
      "name": "Engelszell",
      "zipCode": 4090,
      "latitude": 0.0,
      "longitude": 0.0
    },
    {
      "id": "4090_3",
      "name": "Maierhof",
      "zipCode": 4090,
      "latitude": 0.0,
      "longitude": 0.0
    },
    {
      "id": "4090_4",
      "name": "Saag",
      "zipCode": 4090,
      "latitude": 0.0,
      "longitude": 0.0
    },
    {
      "id": "4090_5",
      "name": "Stadl",
      "zipCode": 4090,
      "latitude": 0.0,
      "longitude": 0.0
    },
    {
      "id": "4090_6",
      "name": "Ronthal",
      "zipCode": 4090,
      "latitude": 0.0,
      "longitude": 0.0
    },
    {
      "id": "4090_7",
      "name": "Oberranna",
      "zipCode": 4090,
      "latitude": 0.0,
      "longitude": 0.0
    },
    {
      "id": "4091_0",
      "name": "Rain",
      "zipCode": 4091,
      "latitude": 0.0,
      "longitude": 0.0
    },
    {
      "id": "4091_1",
      "name": "Wenzelberg",
      "zipCode": 4091,
      "latitude": 0.0,
      "longitude": 0.0
    },
    {
      "id": "4091_2",
      "name": "Aug",
      "zipCode": 4091,
      "latitude": 0.0,
      "longitude": 0.0
    },
    {
      "id": "4091_3",
      "name": "Vichtenstein",
      "zipCode": 4091,
      "latitude": 0.0,
      "longitude": 0.0
    },
    {
      "id": "4091_4",
      "name": "Vichtenstein",
      "zipCode": 4091,
      "latitude": 0.0,
      "longitude": 0.0
    },
    {
      "id": "4091_5",
      "name": "Höll",
      "zipCode": 4091,
      "latitude": 0.0,
      "longitude": 0.0
    },
    {
      "id": "4091_6",
      "name": "Kasten",
      "zipCode": 4091,
      "latitude": 0.0,
      "longitude": 0.0
    },
    {
      "id": "4092_0",
      "name": "Esternberg",
      "zipCode": 4092,
      "latitude": 0.0,
      "longitude": 0.0
    },
    {
      "id": "4092_1",
      "name": "Silbering",
      "zipCode": 4092,
      "latitude": 0.0,
      "longitude": 0.0
    },
    {
      "id": "4092_2",
      "name": "Unteresternberg",
      "zipCode": 4092,
      "latitude": 0.0,
      "longitude": 0.0
    },
    {
      "id": "4092_3",
      "name": "Aug",
      "zipCode": 4092,
      "latitude": 0.0,
      "longitude": 0.0
    },
    {
      "id": "4092_4",
      "name": "Gersdorf",
      "zipCode": 4092,
      "latitude": 0.0,
      "longitude": 0.0
    },
    {
      "id": "4092_5",
      "name": "Reisdorf",
      "zipCode": 4092,
      "latitude": 0.0,
      "longitude": 0.0
    },
    {
      "id": "4092_6",
      "name": "Dietzendorf",
      "zipCode": 4092,
      "latitude": 0.0,
      "longitude": 0.0
    },
    {
      "id": "4092_7",
      "name": "Hütt",
      "zipCode": 4092,
      "latitude": 0.0,
      "longitude": 0.0
    },
    {
      "id": "4092_8",
      "name": "Kösslarn",
      "zipCode": 4092,
      "latitude": 0.0,
      "longitude": 0.0
    },
    {
      "id": "4092_9",
      "name": "Winterhof",
      "zipCode": 4092,
      "latitude": 0.0,
      "longitude": 0.0
    },
    {
      "id": "4092_10",
      "name": "Lanzendorf",
      "zipCode": 4092,
      "latitude": 0.0,
      "longitude": 0.0
    },
    {
      "id": "4092_11",
      "name": "Pyrawang",
      "zipCode": 4092,
      "latitude": 0.0,
      "longitude": 0.0
    },
    {
      "id": "4092_12",
      "name": "Wetzendorf",
      "zipCode": 4092,
      "latitude": 0.0,
      "longitude": 0.0
    },
    {
      "id": "4092_13",
      "name": "Schörgeneck",
      "zipCode": 4092,
      "latitude": 0.0,
      "longitude": 0.0
    },
    {
      "id": "4092_14",
      "name": "Kiesling",
      "zipCode": 4092,
      "latitude": 0.0,
      "longitude": 0.0
    },
    {
      "id": "4092_15",
      "name": "Pfarrhof",
      "zipCode": 4092,
      "latitude": 0.0,
      "longitude": 0.0
    },
    {
      "id": "4092_16",
      "name": "Riedlbach",
      "zipCode": 4092,
      "latitude": 0.0,
      "longitude": 0.0
    },
    {
      "id": "4092_17",
      "name": "Schacher",
      "zipCode": 4092,
      "latitude": 0.0,
      "longitude": 0.0
    },
    {
      "id": "4092_18",
      "name": "Urschendorf",
      "zipCode": 4092,
      "latitude": 0.0,
      "longitude": 0.0
    },
    {
      "id": "4092_19",
      "name": "Weeg",
      "zipCode": 4092,
      "latitude": 0.0,
      "longitude": 0.0
    },
    {
      "id": "4092_20",
      "name": "Zeilberg",
      "zipCode": 4092,
      "latitude": 0.0,
      "longitude": 0.0
    },
    {
      "id": "4092_21",
      "name": "Achleiten",
      "zipCode": 4092,
      "latitude": 0.0,
      "longitude": 0.0
    },
    {
      "id": "4092_22",
      "name": "Ringlholz",
      "zipCode": 4092,
      "latitude": 0.0,
      "longitude": 0.0
    },
    {
      "id": "4100_0",
      "name": "Großamberg",
      "zipCode": 4100,
      "latitude": 0.0,
      "longitude": 0.0
    },
    {
      "id": "4100_1",
      "name": "Weingarten",
      "zipCode": 4100,
      "latitude": 0.0,
      "longitude": 0.0
    },
    {
      "id": "4100_2",
      "name": "Amberg",
      "zipCode": 4100,
      "latitude": 0.0,
      "longitude": 0.0
    },
    {
      "id": "4100_3",
      "name": "Dürnberg",
      "zipCode": 4100,
      "latitude": 0.0,
      "longitude": 0.0
    },
    {
      "id": "4100_4",
      "name": "Schlagberg",
      "zipCode": 4100,
      "latitude": 0.0,
      "longitude": 0.0
    },
    {
      "id": "4100_5",
      "name": "Höflein",
      "zipCode": 4100,
      "latitude": 0.0,
      "longitude": 0.0
    },
    {
      "id": "4100_6",
      "name": "Ottensheim",
      "zipCode": 4100,
      "latitude": 0.0,
      "longitude": 0.0
    },
    {
      "id": "4100_7",
      "name": "Niederottensheim",
      "zipCode": 4100,
      "latitude": 0.0,
      "longitude": 0.0
    }
  ]
}
